GPS BIIRM-2 (PRN 31)    
1 29486U 06042A   18282.23832958 -.00000027  00000-0  00000+0 0  9991
2 29486  55.1221 263.0968 0089853 352.7554 198.3050  2.00553856 88225